Results
*******************************************************************************
 Revised: Aug 07, 2025             Tarqeq / (Saturn)                        652

 Newly discovered irregular Saturnian satellite
*******************************************************************************


*******************************************************************************
Ephemeris / API_USER Tue Jan 20 09:01:12 2026 Pasadena, USA      / Horizons    
*******************************************************************************
Target body name: Tarqeq (652)                    {source: sat456_merged_DE440}
Center body name: Earth (399)                     {source: sat456_merged_DE440}
Center-site name: GEOCENTRIC
*******************************************************************************
Start time      : A.D. 2020-Jan-01 00:00:00.0000 UT      
Stop  time      : A.D. 2020-Dec-20 00:00:00.0000 UT      
Step-size       : 1440 minutes
*******************************************************************************
Target pole/equ : undefined
Target radii    : undefined                                                    
Center geodetic : 0.0, 0.0, -6378.137             {E-lon(deg),Lat(deg),Alt(km)}
Center cylindric: 0.0, 0.0, 0.0                   {E-lon(deg),Dxy(km),Dz(km)}
Center pole/equ : ITRF93                          {East-longitude positive}
Center radii    : 6378.137, 6378.137, 6356.752 km {Equator_a, b, pole_c}       
Target primary  : Saturn
Vis. interferer : MOON (R_eq= 1737.400) km        {source: sat456_merged_DE440}
Rel. light bend : Sun                             {source: sat456_merged_DE440}
Rel. lght bnd GM: 1.3271E+11 km^3/s^2                                          
Atmos refraction: NO (AIRLESS)
RA format       : HMS
Time format     : CAL 
Calendar mode   : Mixed Julian/Gregorian
EOP file        : eop.260119.p260417                                           
EOP coverage    : DATA-BASED 1962-JAN-20 TO 2026-JAN-19. PREDICTS-> 2026-APR-16
Units conversion: 1 au= 149597870.700 km, c= 299792.458 km/s, 1 day= 86400.0 s 
Table cut-offs 1: Elevation (-90.0deg=NO ),Airmass (>38.000=NO), Daylight (NO )
Table cut-offs 2: Solar elongation (  0.0,180.0=NO ),Local Hour Angle( 0.0=NO )
Table cut-offs 3: RA/DEC angular rate (     0.0=NO )                           
**************************************************************************************************************************
 Date__(UT)__HR:MN     R.A._____(ICRF)_____DEC    APmag   S-brt             delta      deldot     S-O-T /r     S-T-O  Cnst
**************************************************************************************************************************
$$SOE
 2020-Oct-22 00:00     19 49 39.79 -21 02 59.8     n.a.    n.a.  9.92032599376079  29.3928421   86.6885 /T    5.7514   Sgr
 2020-Oct-23 00:00     19 49 48.44 -21 02 31.7     n.a.    n.a.  9.93729508299070  29.3682026   85.7275 /T    5.7433   Sgr
 2020-Oct-24 00:00     19 49 57.49 -21 02 02.5     n.a.    n.a.  9.95424760565722  29.3355059   84.7677 /T    5.7336   Sgr
 2020-Oct-25 00:00     19 50 06.94 -21 01 32.4     n.a.    n.a.  9.97117895772377  29.2949184   83.8089 /T    5.7223   Sgr
 2020-Oct-26 00:00     19 50 16.80 -21 01 01.3     n.a.    n.a.  9.98808462346250  29.2465802   82.8513 /T    5.7095   Sgr
 2020-Oct-27 00:00     19 50 27.05 -21 00 29.2     n.a.    n.a.  10.0049601617374  29.1906103   81.8948 /T    5.6951   Sgr
 2020-Oct-28 00:00     19 50 37.69 -20 59 56.2     n.a.    n.a.  10.0218011950518  29.1271108   80.9393 /T    5.6791   Sgr
 2020-Oct-29 00:00     19 50 48.72 -20 59 22.2     n.a.    n.a.  10.0386034007095  29.0561696   79.9849 /T    5.6616   Sgr
 2020-Oct-30 00:00     19 51 00.14 -20 58 47.2     n.a.    n.a.  10.0553625031370  28.9778620   79.0316 /T    5.6425   Sgr
 2020-Oct-31 00:00     19 51 11.94 -20 58 11.3     n.a.    n.a.  10.0720742665253  28.8922504   78.0792 /T    5.6220   Sgr
 2020-Nov-01 00:00     19 51 24.12 -20 57 34.5     n.a.    n.a.  10.0887344872633  28.7993839   77.1278 /T    5.5999   Sgr
 2020-Nov-02 00:00     19 51 36.69 -20 56 56.7     n.a.    n.a.  10.1053389859788  28.6992971   76.1774 /T    5.5763   Sgr
 2020-Nov-03 00:00     19 51 49.62 -20 56 18.0     n.a.    n.a.  10.1218835992837  28.5920107   75.2280 /T    5.5513   Sgr
 2020-Nov-04 00:00     19 52 02.93 -20 55 38.3     n.a.    n.a.  10.1383641714336  28.4775306   74.2795 /T    5.5247   Sgr
 2020-Nov-05 00:00     19 52 16.60 -20 54 57.7     n.a.    n.a.  10.1547765460516  28.3558487   73.3318 /T    5.4967   Sgr
 2020-Nov-06 00:00     19 52 30.64 -20 54 16.1     n.a.    n.a.  10.1711165578558  28.2269422   72.3851 /T    5.4673   Sgr
 2020-Nov-07 00:00     19 52 45.05 -20 53 33.7     n.a.    n.a.  10.1873800240779  28.0907730   71.4393 /T    5.4364   Sgr
 2020-Nov-08 00:00     19 52 59.81 -20 52 50.3     n.a.    n.a.  10.2035627351248  27.9472860   70.4943 /T    5.4041   Sgr
 2020-Nov-09 00:00     19 53 14.93 -20 52 05.9     n.a.    n.a.  10.2196604441833  27.7964073   69.5501 /T    5.3704   Sgr
 2020-Nov-10 00:00     19 53 30.40 -20 51 20.7     n.a.    n.a.  10.2356688562185  27.6380440   68.6068 /T    5.3353   Sgr
 2020-Nov-11 00:00     19 53 46.22 -20 50 34.5     n.a.    n.a.  10.2515836181231  27.4720892   67.6643 /T    5.2988   Sgr
 2020-Nov-12 00:00     19 54 02.39 -20 49 47.4     n.a.    n.a.  10.2674003136999  27.2984344   66.7226 /T    5.2609   Sgr
 2020-Nov-13 00:00     19 54 18.90 -20 48 59.4     n.a.    n.a.  10.2831144689361  27.1169925   65.7818 /T    5.2217   Sgr
 2020-Nov-14 00:00     19 54 35.75 -20 48 10.5     n.a.    n.a.  10.2987215730285  26.9277285   64.8418 /T    5.1811   Sgr
 2020-Nov-15 00:00     19 54 52.94 -20 47 20.7     n.a.    n.a.  10.3142171171770  26.7306883   63.9027 /T    5.1392   Sgr
 2020-Nov-16 00:00     19 55 10.46 -20 46 30.0     n.a.    n.a.  10.3295966462878  26.5260123   62.9644 /T    5.0959   Sgr
 2020-Nov-17 00:00     19 55 28.30 -20 45 38.3     n.a.    n.a.  10.3448558117874  26.3139252   62.0270 /T    5.0514   Sgr
 2020-Nov-18 00:00     19 55 46.46 -20 44 45.8     n.a.    n.a.  10.3599904118517  26.0947042   61.0905 /T    5.0056   Sgr
 2020-Nov-19 00:00     19 56 04.94 -20 43 52.4     n.a.    n.a.  10.3749964105467  25.8686403   60.1549 /T    4.9585   Sgr
 2020-Nov-20 00:00     19 56 23.74 -20 42 58.2     n.a.    n.a.  10.3898699361106  25.6360069   59.2202 /T    4.9102   Sgr
 2020-Nov-21 00:00     19 56 42.84 -20 42 03.0     n.a.    n.a.  10.4046072651822  25.3970429   58.2863 /T    4.8606   Sgr
 2020-Nov-22 00:00     19 57 02.24 -20 41 07.0     n.a.    n.a.  10.4192048014271  25.1519496   57.3534 /T    4.8099   Sgr
 2020-Nov-23 00:00     19 57 21.94 -20 40 10.1     n.a.    n.a.  10.4336590549157  24.9008954   56.4213 /T    4.7580   Sgr
 2020-Nov-24 00:00     19 57 41.94 -20 39 12.3     n.a.    n.a.  10.4479666253932  24.6440238   55.4901 /T    4.7049   Sgr
 2020-Nov-25 00:00     19 58 02.22 -20 38 13.8     n.a.    n.a.  10.4621241900063  24.3814604   54.5597 /T    4.6506   Sgr
 2020-Nov-26 00:00     19 58 22.78 -20 37 14.3     n.a.    n.a.  10.4761284945906  24.1133180   53.6301 /T    4.5952   Sgr
 2020-Nov-27 00:00     19 58 43.63 -20 36 14.0     n.a.    n.a.  10.4899763471139  23.8396991   52.7013 /T    4.5387   Sgr
 2020-Nov-28 00:00     19 59 04.75 -20 35 12.9     n.a.    n.a.  10.5036646118697  23.5606962   51.7734 /T    4.4811   Sgr
 2020-Nov-29 00:00     19 59 26.14 -20 34 11.0     n.a.    n.a.  10.5171902032069  23.2763898   50.8461 /T    4.4225   Sgr
 2020-Nov-30 00:00     19 59 47.79 -20 33 08.2     n.a.    n.a.  10.5305500780972  22.9868465   49.9197 /T    4.3627   Sgr
 2020-Dec-01 00:00     20 00 09.71 -20 32 04.7     n.a.    n.a.  10.5437412272686  22.6921163   48.9939 /T    4.3019   Sgr
 2020-Dec-02 00:00     20 00 31.88 -20 31 00.3     n.a.    n.a.  10.5567606650940  22.3922309   48.0689 /T    4.2401   Sgr
 2020-Dec-03 00:00     20 00 54.30 -20 29 55.1     n.a.    n.a.  10.5696054187757  22.0872029   47.1445 /T    4.1773   Sgr
 2020-Dec-04 00:00     20 01 16.97 -20 28 49.2     n.a.    n.a.  10.5822725175258  21.7770269   46.2207 /T    4.1135   Sgr
 2020-Dec-05 00:00     20 01 39.89 -20 27 42.4     n.a.    n.a.  10.5947589823996  21.4616804   45.2977 /T    4.0487   Sgr
 2020-Dec-06 00:00     20 02 03.05 -20 26 34.9     n.a.    n.a.  10.6070618172691  21.1411268   44.3752 /T    3.9829   Sgr
 2020-Dec-07 00:00     20 02 26.44 -20 25 26.6     n.a.    n.a.  10.6191780013085  20.8153178   43.4533 /T    3.9163   Sgr
 2020-Dec-08 00:00     20 02 50.06 -20 24 17.5     n.a.    n.a.  10.6311044835097  20.4841980   42.5320 /T    3.8486   Sgr
 2020-Dec-09 00:00     20 03 13.91 -20 23 07.7     n.a.    n.a.  10.6428381803134  20.1477116   41.6112 /T    3.7801   Sgr
 2020-Dec-10 00:00     20 03 37.98 -20 21 57.1     n.a.    n.a.  10.6543759783648  19.8058134   40.6910 /T    3.7107   Sgr
 2020-Dec-11 00:00     20 04 02.27 -20 20 45.7     n.a.    n.a.  10.6657147452981  19.4584860   39.7714 /T    3.6404   Sgr
 2020-Dec-12 00:00     20 04 26.77 -20 19 33.7     n.a.    n.a.  10.6768513514691  19.1057599   38.8523 /T    3.5692   Sgr
 2020-Dec-13 00:00     20 04 51.48 -20 18 20.8     n.a.    n.a.  10.6877827037135  18.7477336   37.9338 /T    3.4972   Sgr
 2020-Dec-14 00:00     20 05 16.39 -20 17 07.3     n.a.    n.a.  10.6985057881668  18.3845838   37.0159 /T    3.4244   Sgr
 2020-Dec-15 00:00     20 05 41.50 -20 15 53.1     n.a.    n.a.  10.7090177144909  18.0165589   36.0985 /T    3.3508   Sgr
 2020-Dec-16 00:00     20 06 06.80 -20 14 38.1     n.a.    n.a.  10.7193157512544  17.6439557   35.1817 /T    3.2764   Sgr
 2020-Dec-17 00:00     20 06 32.29 -20 13 22.5     n.a.    n.a.  10.7293973443545  17.2670858   34.2656 /T    3.2013   Sgr
 2020-Dec-18 00:00     20 06 57.95 -20 12 06.1     n.a.    n.a.  10.7392601165572  16.8862457   33.3500 /T    3.1254   Sgr
 2020-Dec-19 00:00     20 07 23.80 -20 10 49.1     n.a.    n.a.  10.7489018523995  16.5016971   32.4351 /T    3.0488   Cap
